NORAD_CAT_ID,OBJECT_NAME,OBJECT_TYPE,EPOCH,MEAN_MOTION,ECCENTRICITY,INCLINATION,RA_OF_ASC_NODE,ARG_OF_PERICENTER,MEAN_ANOMALY,BSTAR,MEAN_MOTION_DOT,MEAN_MOTION_DDOT,TLE_LINE0,TLE_LINE1,TLE_LINE2,SEMIMAJOR_AXIS,PERIOD,APOGEE,PERIGEE,DECAYED
56483.0,STARLINK-5868,PAYLOAD,2024-05-11 21:52:17,14.983028,0.0002413,70.0021,5.5877,267.0925,92.9958,-0.001226,-0.0001468,0.0,0 STARLINK-5868,1 56483U 23064AM  24132.91131565 -.00014680  00000-0 -12260-2 0  9998,2 56483  70.0021   5.5877 0002413 267.0925  92.9958 14.98302800 55862,6950.277,96.109,573.819,570.465,0.0
56483.0,STARLINK-5868,PAYLOAD,2024-05-12 09:05:16,14.98267693,0.0001718,70.0039,4.4089,277.7837,82.3127,-0.0018396,-0.00021937,0.0,0 STARLINK-5868,1 56483U 23064AM  24133.37865939 -.00021937  00000-0 -18396-2 0  9997,2 56483  70.0039   4.4089 0001718 277.7837  82.3127 14.98267693 56290,6950.386,96.111,573.445,571.057,0.0
56483.0,STARLINK-5868,PAYLOAD,2024-05-12 20:18:12,14.9831208,0.0001974,70.0049,3.2329,241.6049,118.4912,1.4838e-05,8.4e-07,0.0,0 STARLINK-5868,1 56483U 23064AM  24133.84597543  .00000084  00000-0  14838-4 0  9999,2 56483  70.0049   3.2329 0001974 241.6049 118.4912 14.98312080 56366,6950.248,96.108,573.485,570.741,0.0
56483.0,STARLINK-5868,PAYLOAD,2024-05-12 21:54:20,14.98307902,0.0002038,70.0057,3.0641,220.913,139.1876,2.1763e-05,1.67e-06,0.0,0 STARLINK-5868,1 56483U 23064AM  24133.91273828  .00000167  00000-0  21763-4 0  9991,2 56483  70.0057   3.0641 0002038 220.9130 139.1876 14.98307902 56011,6950.261,96.108,573.543,570.71,0.0
56483.0,STARLINK-5868,PAYLOAD,2024-05-13 09:07:17,14.98319367,0.0002748,70.0017,1.8826,270.0386,90.0458,0.00074014,8.747e-05,0.0,0 STARLINK-5868,1 56483U 23064AM  24134.38006282  .00008747  00000-0  74014-3 0  9999,2 56483  70.0017   1.8826 0002748 270.0386  90.0458 14.98319367 56081,6950.226,96.108,574.001,570.181,0.0
56483.0,STARLINK-5868,PAYLOAD,2024-05-13 21:56:22,14.9832914,0.0002932,70.0012,0.5366,273.6159,86.4664,0.0010595,0.00012571,0.0,0 STARLINK-5868,1 56483U 23064AM  24134.91414492  .00012571  00000-0  10595-2 0  9997,2 56483  70.0012   0.5366 0002932 273.6159  86.4664 14.98329140 56160,6950.196,96.107,574.098,570.023,0.0
56483.0,STARLINK-5868,PAYLOAD,2024-05-14 01:08:37,14.98334868,0.0002883,70.0013,0.1998,272.2953,87.7876,0.00080756,9.557e-05,0.0,0 STARLINK-5868,1 56483U 23064AM  24135.04766029  .00009557  00000-0  80756-3 0  9995,2 56483  70.0013   0.1998 0002883 272.2953  87.7876 14.98334868 56184,6950.178,96.107,574.047,570.039,0.0
56483.0,STARLINK-5868,PAYLOAD,2024-05-14 21:58:21,14.98363328,0.000299,70.0011,358.0116,274.002,86.0797,0.00059748,7.049e-05,0.0,0 STARLINK-5868,1 56483U 23064AM  24135.91552170  .00007049  00000-0  59748-3 0  9992,2 56483  70.0011 358.0116 0002990 274.0020  86.0797 14.98363328 56315,6950.09,96.105,574.033,569.877,0.0
56483.0,STARLINK-5868,PAYLOAD,2024-05-15 01:10:36,14.98377124,0.0002925,70.0017,357.6748,274.5409,85.5416,0.00097675,0.00011595,0.0,0 STARLINK-5868,1 56483U 23064AM  24136.04903630  .00011595  00000-0  97675-3 0  9990,2 56483  70.0017 357.6748 0002925 274.5409  85.5416 14.98377124 56693,6950.047,96.104,573.945,569.879,0.0
56483.0,STARLINK-5868,PAYLOAD,2024-05-15 07:35:09,14.98362594,0.0002636,70.0079,356.9983,279.8631,80.223,0.00047777,5.617e-05,0.0,0 STARLINK-5868,1 56483U 23064AM  24136.31608221  .00005617  00000-0  47777-3 0  9994,2 56483  70.0079 356.9983 0002636 279.8631  80.2230 14.98362594 56734,6950.092,96.105,573.789,570.125,0.0
56483.0,STARLINK-5868,PAYLOAD,2024-05-15 13:59:57,14.97867734,0.0003801,70.0023,356.3288,98.1065,262.0525,-0.015802,-0.00181668,0.0,0 STARLINK-5868,1 56483U 23064AM  24136.58330571 -.00181668  00000-0 -15802-1 0  9998,2 56483  70.0023 356.3288 0003801  98.1065 262.0525 14.97867734 56410,6951.623,96.137,576.13,570.845,0.0
56483.0,STARLINK-5868,PAYLOAD,2024-05-15 18:48:05,14.98342416,0.0003123,70.0021,355.8231,272.5831,87.497,-0.00027676,-3.395e-05,0.0,0 STARLINK-5868,1 56483U 23064AM  24136.78339334 -.00003395  00000-0 -27676-3 0  9990,2 56483  70.0021 355.8231 0003123 272.5831  87.4970 14.98342416 56808,6950.154,96.106,574.19,569.849,0.0
56483.0,STARLINK-5868,PAYLOAD,2024-05-15 22:00:21,14.98342354,0.0003062,70.0025,355.4862,280.4044,79.677,2.3445e-05,1.87e-06,0.0,0 STARLINK-5868,1 56483U 23064AM  24136.91691409  .00000187  00000-0  23445-4 0  9994,2 56483  70.0025 355.4862 0003062 280.4044  79.6770 14.98342354 56468,6950.155,96.106,574.148,569.892,0.0
56483.0,STARLINK-5868,PAYLOAD,2024-05-16 07:37:09,14.98339907,0.0002962,70.0027,354.476,268.5043,91.5777,0.00058429,6.887e-05,0.0,0 STARLINK-5868,1 56483U 23064AM  24137.31747319  .00006887  00000-0  58429-3 0  9993,2 56483  70.0027 354.4760 0002962 268.5043  91.5777 14.98339907 56527,6950.162,96.106,574.086,569.969,0.0
56483.0,STARLINK-5868,PAYLOAD,2024-05-16 20:26:14,14.98342891,0.0002849,70.0032,353.1311,265.3201,94.7633,0.0007108,8.401e-05,0.0,0 STARLINK-5868,1 56483U 23064AM  24137.85155144  .00008401  00000-0  71080-3 0  9993,2 56483  70.0032 353.1311 0002849 265.3201  94.7633 14.98342891 56966,6950.153,96.106,573.998,570.038,0.0
56483.0,STARLINK-5868,PAYLOAD,2024-05-17 20:28:15,14.98324175,0.0004488,70.0,350.602,267.8353,92.2292,0.00017615,2.009e-05,0.0,0 STARLINK-5868,1 56483U 23064AM  24138.85295748  .00002009  00000-0  17615-3 0  9991,2 56483  70.0000 350.6020 0004488 267.8353  92.2292 14.98324175 57113,6950.211,96.107,575.195,568.957,0.0
56483.0,STARLINK-5868,PAYLOAD,2024-05-17 22:04:23,14.9832524,0.0003315,70.0013,350.4358,267.3791,92.6989,-2.1384e-06,-1.19e-06,0.0,0 STARLINK-5868,1 56483U 23064AM  24138.91971751 -.00000119  00000-0 -21384-5 0  9995,2 56483  70.0013 350.4358 0003315 267.3791  92.6989 14.98325240 56769,6950.208,96.107,574.377,569.769,0.0
56483.0,STARLINK-5868,PAYLOAD,2024-05-18 07:41:11,14.98334546,0.0003332,70.0014,349.4254,267.1622,92.9156,0.00015375,1.742e-05,0.0,0 STARLINK-5868,1 56483U 23064AM  24139.32027450  .00001742  00000-0  15375-3 0  9991,2 56483  70.0014 349.4254 0003332 267.1622  92.9156 14.98334546 57188,6950.179,96.107,574.36,569.728,0.0
56483.0,STARLINK-5868,PAYLOAD,2024-05-18 20:30:15,14.98347001,0.0003801,70.0004,348.0803,270.4436,89.6288,0.0004847,5.698e-05,0.0,0 STARLINK-5868,1 56483U 23064AM  24139.85434561  .00005698  00000-0  48470-3 0  9990,2 56483  70.0004 348.0803 0003801 270.4436  89.6288 14.98347001 57261,6950.14,96.106,574.647,569.364,0.0
56483.0,STARLINK-5868,PAYLOAD,2024-05-18 22:06:23,14.98348886,0.0003514,70.0003,347.912,270.6662,89.4094,0.00071184,8.415e-05,0.0,0 STARLINK-5868,1 56483U 23064AM  24139.92110510  .00008415  00000-0  71184-3 0  9991,2 56483  70.0003 347.9120 0003514 270.6662  89.4094 14.98348886 56910,6950.134,96.106,574.442,569.557,0.0
56483.0,STARLINK-5868,PAYLOAD,2024-05-19 14:07:44,14.98330879,0.000317,70.0008,346.2287,269.1721,90.9075,-1.3752e-05,-2.57e-06,0.0,0 STARLINK-5868,1 56483U 23064AM  24140.58871310 -.00000257  00000-0 -13752-4 0  9993,2 56483  70.0008 346.2287 0003170 269.1721  90.9075 14.98330879 57019,6950.19,96.107,574.258,569.852,0.0
56483.0,STARLINK-5868,PAYLOAD,2024-05-19 20:32:17,14.98319014,0.0003346,70.0018,345.5548,266.8858,93.1918,-0.00034053,-4.153e-05,0.0,0 STARLINK-5868,1 56483U 23064AM  24140.85575390 -.00004153  00000-0 -34053-3 0  9997,2 56483  70.0018 345.5548 0003346 266.8858  93.1918 14.98319014 57415,6950.227,96.108,574.417,569.766,0.0
56483.0,STARLINK-5868,PAYLOAD,2024-05-20 12:33:38,14.98335009,0.000353,70.0013,343.8719,264.6901,95.3855,0.0014438,0.00017179,0.0,0 STARLINK-5868,1 56483U 23064AM  24141.52335747  .00017179  00000-0  14438-2 0  9996,2 56483  70.0013 343.8719 0003530 264.6901  95.3855 14.98335009 57518,6950.177,96.107,574.496,569.589,0.0
56483.0,STARLINK-5868,PAYLOAD,2024-05-21 14:11:46,14.9835052,0.0002615,70.0044,341.1834,245.2198,114.8689,0.00013108,1.472e-05,0.0,0 STARLINK-5868,1 56483U 23064AM  24142.59151088  .00001472  00000-0  13108-3 0  9991,2 56483  70.0044 341.1834 0002615 245.2198 114.8689 14.98350520 57312,6950.129,96.106,573.812,570.177,0.0
56483.0,STARLINK-5868,PAYLOAD,2024-05-21 20:36:19,14.98332273,0.0002902,70.0027,340.5073,248.0684,112.0167,0.00026379,3.056e-05,0.0,0 STARLINK-5868,1 56483U 23064AM  24142.85855457  .00003056  00000-0  26379-3 0  9995,2 56483  70.0027 340.5073 0002902 248.0684 112.0167 14.98332273 57711,6950.186,96.107,574.068,570.034,0.0
56483.0,STARLINK-5868,PAYLOAD,2024-05-21 22:12:27,14.98331678,0.0002872,70.0027,340.339,249.9323,110.1527,0.00020927,2.405e-05,0.0,0 STARLINK-5868,1 56483U 23064AM  24142.92531464  .00002405  00000-0  20927-3 0  9992,2 56483  70.0027 340.3390 0002872 249.9323 110.1527 14.98331678 57365,6950.188,96.107,574.049,570.057,0.0
56483.0,STARLINK-5868,PAYLOAD,2024-05-22 20:38:19,14.98336312,0.0002895,70.0023,337.9821,248.1309,111.9542,8.3264e-05,9.01e-06,0.0,0 STARLINK-5868,1 56483U 23064AM  24143.85995055  .00000901  00000-0  83264-4 0  9998,2 56483  70.0023 337.9821 0002895 248.1309 111.9542 14.98336312 57863,6950.173,96.107,574.05,570.026,0.0
56483.0,STARLINK-5868,PAYLOAD,2024-05-23 14:15:48,14.98331484,0.0002862,70.0021,336.1305,246.8417,113.2441,9.1429e-05,9.98e-06,0.0,0 STARLINK-5868,1 56483U 23064AM  24144.59431198  .00000998  00000-0  91429-4 0  9991,2 56483  70.0021 336.1305 0002862 246.8417 113.2441 14.98331484 57619,6950.188,96.107,574.042,570.064,0.0
56483.0,STARLINK-5868,PAYLOAD,2024-05-23 19:04:12,14.98331231,0.0002866,70.001,335.6257,245.7005,114.3855,0.00010827,1.199e-05,0.0,0 STARLINK-5868,1 56483U 23064AM  24144.79459301  .00001199  00000-0  10827-3 0  9995,2 56483  70.0010 335.6257 0002866 245.7005 114.3855 14.98331231 58007,6950.189,96.107,574.046,570.062,0.0
56483.0,STARLINK-5868,PAYLOAD,2024-05-23 20:40:20,14.98330543,0.0002934,70.0007,335.4568,251.5999,108.4841,8.5148e-05,9.23e-06,0.0,0 STARLINK-5868,1 56483U 23064AM  24144.86135413  .00000923  00000-0  85148-4 0  9991,2 56483  70.0007 335.4568 0002934 251.5999 108.4841 14.98330543 57653,6950.191,96.107,574.095,570.017,0.0
